MESON-1                 
1 59131U 24043AK  26068.90019075  .00008544  00000+0  29748-3 0  9998
2 59131  97.5469 205.2839 0009545 227.1432 132.9007 15.29893494111890
STARLINK-31366          
1 59403U 24064F   26068.02308473 -.00003679  00000+0 -12422-3 0  9996
2 59403  42.9984  59.9515 0000169  94.4170 265.6700 15.27585402109122
